NORAD_CAT_ID,OBJECT_NAME,OBJECT_TYPE,EPOCH,MEAN_MOTION,ECCENTRICITY,INCLINATION,RA_OF_ASC_NODE,ARG_OF_PERICENTER,MEAN_ANOMALY,BSTAR,MEAN_MOTION_DOT,MEAN_MOTION_DDOT,TLE_LINE0,TLE_LINE1,TLE_LINE2,SEMIMAJOR_AXIS,PERIOD,APOGEE,PERIGEE,DECAYED
52560.0,STARLINK-3956,PAYLOAD,2024-01-17 08:28:36,15.08840997,0.0001598,53.2174,31.1636,84.0449,276.0725,6.3147e-05,7.17e-06,0.0,0 STARLINK-3956,1 52560U 22051AD  24017.35320297  .00000717  00000-0  63147-4 0  9993,2 52560  53.2174  31.1636 0001598  84.0449 276.0725 15.08840997 93545,6917.877,95.437,540.848,538.637,0.0
52560.0,STARLINK-3956,PAYLOAD,2024-01-17 22:47:05,15.08833975,0.0001403,53.2193,28.4846,99.5749,260.5402,7.7883e-05,9.52e-06,0.0,0 STARLINK-3956,1 52560U 22051AD  24017.94936737  .00000952  00000-0  77883-4 0  9993,2 52560  53.2193  28.4846 0001403  99.5749 260.5402 15.08833975 93635,6917.899,95.438,540.734,538.793,0.0
52560.0,STARLINK-3956,PAYLOAD,2024-01-18 09:54:46,15.08843424,0.0001528,53.2186,26.4018,104.2077,255.9085,0.00015273,2.144e-05,0.0,0 STARLINK-3956,1 52560U 22051AD  24018.41304062  .00002144  00000-0  15273-3 0  9995,2 52560  53.2186  26.4018 0001528 104.2077 255.9085 15.08843424 93705,6917.87,95.437,540.792,538.678,0.0
52560.0,STARLINK-3956,PAYLOAD,2024-01-19 09:45:33,15.08853514,0.0001611,53.2183,21.9397,106.2898,253.8271,9.5084e-05,1.226e-05,0.0,0 STARLINK-3956,1 52560U 22051AD  24019.40663458  .00001226  00000-0  95084-4 0  9991,2 52560  53.2183  21.9397 0001611 106.2898 253.8271 15.08853514 93781,6917.839,95.437,540.819,538.59,0.0
52560.0,STARLINK-3956,PAYLOAD,2024-01-20 03:14:48,15.08840752,0.0001555,53.217,18.673,109.6865,250.4295,6.0791e-05,6.8e-06,0.0,0 STARLINK-3956,1 52560U 22051AD  24020.13528408  .00000680  00000-0  60791-4 0  9998,2 52560  53.2170  18.6730 0001555 109.6865 250.4295 15.08840752 93968,6917.878,95.438,540.819,538.667,0.0
52560.0,STARLINK-3956,PAYLOAD,2024-01-20 06:25:34,15.08844931,0.0001476,53.217,18.0785,100.5379,259.578,0.00010043,1.311e-05,0.0,0 STARLINK-3956,1 52560U 22051AD  24020.26776129  .00001311  00000-0  10043-3 0  9993,2 52560  53.2170  18.0785 0001476 100.5379 259.5780 15.08844931 93911,6917.865,95.437,540.751,538.709,0.0
52560.0,STARLINK-3956,PAYLOAD,2024-01-21 06:16:22,15.08842493,0.0001518,53.2173,13.6189,87.1987,272.9179,3.1934e-05,2.2e-06,0.0,0 STARLINK-3956,1 52560U 22051AD  24021.26136580  .00000220  00000-0  31934-4 0  9996,2 52560  53.2173  13.6189 0001518  87.1987 272.9179 15.08842493 94132,6917.873,95.437,540.788,538.688,0.0
52560.0,STARLINK-3956,PAYLOAD,2024-01-22 06:07:08,15.08844329,0.0001419,53.2175,9.156,90.5717,269.5438,0.00016966,2.414e-05,0.0,0 STARLINK-3956,1 52560U 22051AD  24022.25496267  .00002414  00000-0  16966-3 0  9991,2 52560  53.2175   9.1560 0001419  90.5717 269.5438 15.08844329 94215,6917.867,95.437,540.714,538.751,0.0
52560.0,STARLINK-3956,PAYLOAD,2024-01-22 09:17:54,15.08845066,0.0001427,53.2175,8.5608,90.1179,269.9976,0.00018399,2.642e-05,0.0,0 STARLINK-3956,1 52560U 22051AD  24022.38744212  .00002642  00000-0  18399-3 0  9996,2 52560  53.2175   8.5608 0001427  90.1179 269.9976 15.08845066 94308,6917.865,95.437,540.717,538.743,0.0
52560.0,STARLINK-3956,PAYLOAD,2024-01-23 02:47:10,15.08833852,0.0001545,53.2185,5.2872,86.9343,273.1826,4.3008e-05,3.96e-06,0.0,0 STARLINK-3956,1 52560U 22051AD  24023.11609265  .00000396  00000-0  43008-4 0  9996,2 52560  53.2185   5.2872 0001545  86.9343 273.1826 15.08833852 94416,6917.899,95.438,540.833,538.695,0.0
52560.0,STARLINK-3956,PAYLOAD,2024-01-23 04:22:33,15.0883252,0.0001659,53.2195,4.9897,113.5313,246.5854,7.9473e-05,9.77e-06,0.0,0 STARLINK-3956,1 52560U 22051AD  24023.18233211  .00000977  00000-0  79473-4 0  9997,2 52560  53.2195   4.9897 0001659 113.5313 246.5854 15.08832520 94359,6917.903,95.438,540.916,538.621,0.0
52560.0,STARLINK-3956,PAYLOAD,2024-01-24 05:48:43,15.08846062,0.0001477,53.2189,0.2312,79.9288,280.187,9.4094e-05,1.21e-05,0.0,0 STARLINK-3956,1 52560U 22051AD  24024.24216724  .00001210  00000-0  94094-4 0  9992,2 52560  53.2189   0.2312 0001477  79.9288 280.1870 15.08846062 94580,6917.862,95.437,540.749,538.705,0.0
52560.0,STARLINK-3956,PAYLOAD,2024-01-25 04:04:08,15.08817102,0.000196,53.2197,356.0738,60.0132,300.1055,0.0004264,6.5e-05,0.0,0 STARLINK-3956,1 52560U 22051AD  24025.16953836  .00006500  00000-0  42640-3 0  9992,2 52560  53.2197 356.0738 0001960  60.0132 300.1055 15.08817102 94726,6917.95,95.439,541.171,538.459,0.0
52560.0,STARLINK-3956,PAYLOAD,2024-01-25 05:39:30,15.08842964,0.000192,53.2202,355.7793,58.3503,301.7677,0.00012855,1.758e-05,0.0,0 STARLINK-3956,1 52560U 22051AD  24025.23577226  .00001758  00000-0  12855-3 0  9990,2 52560  53.2202 355.7793 0001920  58.3503 301.7677 15.08842964 94730,6917.871,95.437,541.065,538.408,0.0
52560.0,STARLINK-3956,PAYLOAD,2024-01-26 03:54:55,15.08838046,0.000207,53.2204,351.6131,64.1545,295.966,2.6594e-05,1.35e-06,0.0,0 STARLINK-3956,1 52560U 22051AD  24026.16313880  .00000135  00000-0  26594-4 0  9991,2 52560  53.2204 351.6131 0002070  64.1545 295.9660 15.08838046 94878,6917.886,95.438,541.183,538.319,0.0
52560.0,STARLINK-3956,PAYLOAD,2024-01-27 03:45:41,15.08849537,0.0001579,53.2186,347.1565,93.1016,267.0157,7.6346e-05,9.28e-06,0.0,0 STARLINK-3956,1 52560U 22051AD  24027.15672926  .00000928  00000-0  76346-4 0  9990,2 52560  53.2186 347.1565 0001579  93.1016 267.0157 15.08849537 95022,6917.851,95.437,540.809,538.624,0.0
52560.0,STARLINK-3956,PAYLOAD,2024-01-27 06:56:27,15.0885121,0.0001553,53.2191,346.5534,100.5937,259.523,0.000109,1.448e-05,0.0,0 STARLINK-3956,1 52560U 22051AD  24027.28920626  .00001448  00000-0  10900-3 0  9998,2 52560  53.2191 346.5534 0001553 100.5937 259.5230 15.08851210 94976,6917.846,95.437,540.785,538.637,0.0
52560.0,STARLINK-3956,PAYLOAD,2024-01-27 21:14:56,15.08837174,0.0001784,53.2202,343.8715,120.6347,239.4822,3.969e-05,3.44e-06,0.0,0 STARLINK-3956,1 52560U 22051AD  24027.88537643  .00000344  00000-0  39690-4 0  9999,2 52560  53.2202 343.8715 0001784 120.6347 239.4822 15.08837174 95062,6917.889,95.438,540.988,538.52,0.0
52560.0,STARLINK-3956,PAYLOAD,2024-01-28 03:36:29,15.08838606,0.0001728,53.2197,342.6936,100.2139,259.9048,7.118e-05,8.45e-06,0.0,0 STARLINK-3956,1 52560U 22051AD  24028.15033733  .00000845  00000-0  71180-4 0  9997,2 52560  53.2197 342.6936 0001728 100.2139 259.9048 15.08838606 95178,6917.885,95.438,540.945,538.554,0.0
52560.0,STARLINK-3956,PAYLOAD,2024-01-28 06:47:15,15.08841106,0.0001636,53.2198,342.0965,96.8704,263.2474,8.2343e-05,1.023e-05,0.0,0 STARLINK-3956,1 52560U 22051AD  24028.28281597  .00001023  00000-0  82343-4 0  9996,2 52560  53.2198 342.0965 0001636  96.8704 263.2474 15.08841106 95126,6917.877,95.437,540.874,538.61,0.0
52560.0,STARLINK-3956,PAYLOAD,2024-01-28 21:05:43,15.0884214,0.0001592,53.2191,339.4197,106.9955,253.1212,-1.7359e-05,-5.64e-06,0.0,0 STARLINK-3956,1 52560U 22051AD  24028.87897856 -.00000564  00000-0 -17359-4 0  9998,2 52560  53.2191 339.4197 0001592 106.9955 253.1212 15.08842140 95215,6917.874,95.437,540.84,538.638,0.0
52560.0,STARLINK-3956,PAYLOAD,2024-01-29 06:38:02,15.08847778,0.000165,53.2189,337.6347,111.3627,248.7542,3.0621e-05,1.99e-06,0.0,0 STARLINK-3956,1 52560U 22051AD  24029.27641306  .00000199  00000-0  30621-4 0  9999,2 52560  53.2189 337.6347 0001650 111.3627 248.7542 15.08847778 95342,6917.857,95.437,540.863,538.58,0.0
52560.0,STARLINK-3956,PAYLOAD,2024-01-30 03:18:03,15.08845205,0.0001813,53.2193,333.7682,106.452,253.6671,5.4965e-05,5.87e-06,0.0,0 STARLINK-3956,1 52560U 22051AD  24030.13753494  .00000587  00000-0  54965-4 0  9996,2 52560  53.2193 333.7682 0001813 106.4520 253.6671 15.08845205 95479,6917.864,95.437,540.984,538.475,0.0
52560.0,STARLINK-3956,PAYLOAD,2024-01-30 04:53:25,15.08849777,0.0001626,53.2193,333.4718,104.5548,255.5625,5.1937e-05,5.39e-06,0.0,0 STARLINK-3956,1 52560U 22051AD  24030.20377173  .00000539  00000-0  51937-4 0  9993,2 52560  53.2193 333.4718 0001626 104.5548 255.5625 15.08849777 95419,6917.851,95.437,540.84,538.591,0.0
52560.0,STARLINK-3956,PAYLOAD,2024-01-31 03:08:50,15.08841244,0.000177,53.221,329.3154,75.2569,284.8619,6.2056e-05,7e-06,0.0,0 STARLINK-3956,1 52560U 22051AD  24031.13114103  .00000700  00000-0  62056-4 0  9992,2 52560  53.2210 329.3154 0001770  75.2569 284.8619 15.08841244 95626,6917.877,95.437,540.966,538.517,0.0
52560.0,STARLINK-3956,PAYLOAD,2024-02-01 02:59:37,15.08835161,0.0001968,53.2201,324.8553,65.0339,295.0858,0.00011636,1.564e-05,0.0,0 STARLINK-3956,1 52560U 22051AD  24032.12474445  .00001564  00000-0  11636-3 0  9996,2 52560  53.2201 324.8553 0001968  65.0339 295.0858 15.08835161 95776,6917.895,95.438,541.122,538.399,0.0
52560.0,STARLINK-3956,PAYLOAD,2024-02-02 02:50:24,15.08841068,0.0002267,53.2203,320.3914,57.6362,302.4849,6.7033e-05,7.79e-06,0.0,0 STARLINK-3956,1 52560U 22051AD  24033.11834476  .00000779  00000-0  67033-4 0  9990,2 52560  53.2203 320.3914 0002267  57.6362 302.4849 15.08841068 95851,6917.877,95.437,541.31,538.174,0.0
52560.0,STARLINK-3956,PAYLOAD,2024-02-03 01:05:48,15.08839408,0.0002167,53.2199,316.2293,61.3308,298.7902,7.9637e-05,9.79e-06,0.0,0 STARLINK-3956,1 52560U 22051AD  24034.04570555  .00000979  00000-0  79637-4 0  9993,2 52560  53.2199 316.2293 0002167  61.3308 298.7902 15.08839408 96066,6917.882,95.438,541.246,538.248,0.0
52560.0,STARLINK-3956,PAYLOAD,2024-02-03 21:45:49,15.08841007,0.0001538,53.2175,312.3651,89.2852,270.8316,3.8585e-05,3.26e-06,0.0,0 STARLINK-3956,1 52560U 22051AD  24034.90682386  .00000326  00000-0  38585-4 0  9997,2 52560  53.2175 312.3651 0001538  89.2852 270.8316 15.08841007 96124,6917.877,95.437,540.806,538.678,0.0
52560.0,STARLINK-3956,PAYLOAD,2024-02-04 00:56:35,15.08841631,0.0001551,53.2176,311.7706,87.3433,272.7737,3.9597e-05,3.42e-06,0.0,0 STARLINK-3956,1 52560U 22051AD  24035.03930334  .00000342  00000-0  39597-4 0  9993,2 52560  53.2176 311.7706 0001551  87.3433 272.7737 15.08841631 96141,6917.875,95.437,540.813,538.667,0.0
